NORAD_CAT_ID,OBJECT_NAME,OBJECT_TYPE,EPOCH,MEAN_MOTION,ECCENTRICITY,INCLINATION,RA_OF_ASC_NODE,ARG_OF_PERICENTER,MEAN_ANOMALY,BSTAR,MEAN_MOTION_DOT,MEAN_MOTION_DDOT,TLE_LINE0,TLE_LINE1,TLE_LINE2,SEMIMAJOR_AXIS,PERIOD,APOGEE,PERIGEE,DECAYED
53434.0,STARLINK-4498,PAYLOAD,2024-01-31 19:23:11,15.0883372,0.0002049,53.22,311.0004,94.462,265.6606,1.3844e-05,-6.8e-07,0.0,0 STARLINK-4498,1 53434U 22097AY  24031.80777082 -.00000068  00000-0  13844-4 0  9997,2 53434  53.2200 311.0004 0002049  94.4620 265.6606 15.08833720 82381,6917.9,95.438,541.182,538.347,0.0
53434.0,STARLINK-4498,PAYLOAD,2024-02-01 00:09:20,15.08834432,0.0001488,53.2198,310.1093,89.2232,270.8931,-5.1154e-05,-1.102e-05,0.0,0 STARLINK-4498,1 53434U 22097AY  24032.00649284 -.00001102  00000-0 -51154-4 0  9999,2 53434  53.2198 310.1093 0001488  89.2232 270.8931 15.08834432 82900,6917.897,95.438,540.792,538.733,0.0
53434.0,STARLINK-4498,PAYLOAD,2024-02-02 01:35:30,15.08846306,0.0001302,53.2179,305.3495,85.6357,274.4784,4.8964e-05,4.92e-06,0.0,0 STARLINK-4498,1 53434U 22097AY  24033.06632424  .00000492  00000-0  48964-4 0  9998,2 53434  53.2179 305.3495 0001302  85.6357 274.4784 15.08846306 82576,6917.861,95.437,540.627,538.825,0.0
53434.0,STARLINK-4498,PAYLOAD,2024-02-02 22:15:32,15.0881633,0.0001749,53.2181,301.4852,60.9208,299.1959,0.00037086,5.615e-05,0.0,0 STARLINK-4498,1 53434U 22097AY  24033.92745533  .00005615  00000-0  37086-3 0  9993,2 53434  53.2181 301.4852 0001749  60.9208 299.1959 15.08816330 83190,6917.953,95.439,541.028,538.608,0.0
53434.0,STARLINK-4498,PAYLOAD,2024-02-03 03:01:40,15.08839778,0.0001706,53.2192,300.5897,75.3296,284.7885,0.00012914,1.768e-05,0.0,0 STARLINK-4498,1 53434U 22097AY  24034.12616817  .00001768  00000-0  12914-3 0  9996,2 53434  53.2192 300.5897 0001706  75.3296 284.7885 15.08839778 82739,6917.881,95.438,540.926,538.566,0.0
53434.0,STARLINK-4498,PAYLOAD,2024-02-03 22:06:18,15.0884511,0.0001489,53.2182,297.0254,91.0252,269.0911,-4.5399e-05,-1.011e-05,0.0,0 STARLINK-4498,1 53434U 22097AY  24034.92104975 -.00001011  00000-0 -45399-4 0  9998,2 53434  53.2182 297.0254 0001489  91.0252 269.0911 15.08845110 83341,6917.865,95.437,540.76,538.7,0.0
53434.0,STARLINK-4498,PAYLOAD,2024-02-03 23:41:41,15.0884215,0.0001813,53.2181,296.7289,77.27,282.8495,2.7779e-05,1.54e-06,0.0,0 STARLINK-4498,1 53434U 22097AY  24034.98728991  .00000154  00000-0  27779-4 0  9991,2 53434  53.2181 296.7289 0001813  77.2700 282.8495 15.08842150 83351,6917.874,95.437,540.993,538.485,0.0
53434.0,STARLINK-4498,PAYLOAD,2024-02-04 20:21:42,15.08844682,0.0001574,53.218,292.8639,111.4846,248.6314,2.5586e-06,-2.47e-06,0.0,0 STARLINK-4498,1 53434U 22097AY  24035.84840719 -.00000247  00000-0  25586-5 0  9999,2 53434  53.2180 292.8639 0001574 111.4846 248.6314 15.08844682 82993,6917.866,95.437,540.82,538.642,0.0
53434.0,STARLINK-4498,PAYLOAD,2024-02-04 21:57:05,15.08845277,0.0001712,53.2184,292.5662,119.3717,240.7446,4.233e-07,-2.81e-06,0.0,0 STARLINK-4498,1 53434U 22097AY  24035.91464605 -.00000281  00000-0  42330-6 0  9998,2 53434  53.2184 292.5662 0001712 119.3717 240.7446 15.08845277 83494,6917.864,95.437,540.914,538.545,0.0
53434.0,STARLINK-4498,PAYLOAD,2024-02-05 02:43:14,15.08845446,0.0001486,53.2177,291.6693,97.141,262.9751,2.515e-05,1.12e-06,0.0,0 STARLINK-4498,1 53434U 22097AY  24036.11336515  .00000112  00000-0  25150-4 0  9990,2 53434  53.2177 291.6693 0001486  97.1410 262.9751 15.08845446 83528,6917.864,95.437,540.757,538.701,0.0
53434.0,STARLINK-4498,PAYLOAD,2024-02-05 20:12:29,15.08807728,0.000188,53.2178,288.3975,106.3543,253.7656,0.00051148,7.854e-05,0.0,0 STARLINK-4498,1 53434U 22097AY  24036.84201245  .00007854  00000-0  51148-3 0  9996,2 53434  53.2178 288.3975 0001880 106.3543 253.7656 15.08807728 83144,6917.979,95.44,541.145,538.543,0.0
53434.0,STARLINK-4498,PAYLOAD,2024-02-05 21:47:53,15.08779775,0.0001965,53.2181,288.1002,99.4799,260.6415,0.00091676,0.00014308,0.0,0 STARLINK-4498,1 53434U 22097AY  24036.90825907  .00014308  00000-0  91676-3 0  9992,2 53434  53.2181 288.1002 0001965  99.4799 260.6415 15.08779775 83641,6918.064,95.441,541.289,538.57,0.0
53434.0,STARLINK-4498,PAYLOAD,2024-02-05 23:23:15,15.08847738,0.0001419,53.2173,287.8033,96.097,264.0184,4.2164e-05,3.83e-06,0.0,0 STARLINK-4498,1 53434U 22097AY  24036.97448267  .00000383  00000-0  42164-4 0  9996,2 53434  53.2173 287.8033 0001419  96.0970 264.0184 15.08847738 83163,6917.857,95.437,540.703,538.74,0.0
53434.0,STARLINK-4498,PAYLOAD,2024-02-06 20:03:17,15.08834636,0.0001316,53.218,283.9374,104.2333,255.8805,-2.0554e-05,-6.15e-06,0.0,0 STARLINK-4498,1 53434U 22097AY  24037.83561410 -.00000615  00000-0 -20554-4 0  9997,2 53434  53.2180 283.9374 0001316 104.2333 255.8805 15.08834636 83292,6917.897,95.438,540.672,538.851,0.0
53434.0,STARLINK-4498,PAYLOAD,2024-02-06 21:38:40,15.08835436,0.0001402,53.2181,283.6401,103.4901,256.6247,-1.2188e-05,-4.82e-06,0.0,0 STARLINK-4498,1 53434U 22097AY  24037.90185390 -.00000482  00000-0 -12188-4 0  9990,2 53434  53.2181 283.6401 0001402 103.4901 256.6247 15.08835436 83792,6917.894,95.438,540.729,538.789,0.0
53434.0,STARLINK-4498,PAYLOAD,2024-02-07 08:46:22,15.08836545,0.0001369,53.2182,281.5589,96.1918,263.923,6.9607e-06,-1.77e-06,0.0,0 STARLINK-4498,1 53434U 22097AY  24038.36553440 -.00000177  00000-0  69607-5 0  9995,2 53434  53.2182 281.5589 0001369  96.1918 263.9230 15.08836545 83868,6917.891,95.438,540.703,538.809,0.0
53434.0,STARLINK-4498,PAYLOAD,2024-02-07 21:29:27,15.08842433,0.0001198,53.2172,279.1816,90.0007,270.1122,-6.3555e-06,-3.89e-06,0.0,0 STARLINK-4498,1 53434U 22097AY  24038.89545304 -.00000389  00000-0 -63555-5 0  9995,2 53434  53.2172 279.1816 0001198  90.0007 270.1122 15.08842433 83947,6917.873,95.437,540.567,538.909,0.0
53434.0,STARLINK-4498,PAYLOAD,2024-02-08 00:40:13,15.08845952,0.0001178,53.2178,278.5884,92.4589,267.6538,4.3203e-05,4e-06,0.0,0 STARLINK-4498,1 53434U 22097AY  24039.02792931  .00000400  00000-0  43203-4 0  9990,2 53434  53.2178 278.5884 0001178  92.4589 267.6538 15.08845952 83479,6917.862,95.437,540.542,538.912,0.0
53434.0,STARLINK-4498,PAYLOAD,2024-02-08 08:37:08,15.08845669,0.0001224,53.2178,277.1013,86.6703,273.4429,3.1476e-05,2.13e-06,0.0,0 STARLINK-4498,1 53434U 22097AY  24039.35913018  .00000213  00000-0  31476-4 0  9998,2 53434  53.2178 277.1013 0001224  86.6703 273.4429 15.08845669 84013,6917.863,95.437,540.575,538.881,0.0
53434.0,STARLINK-4498,PAYLOAD,2024-02-08 19:44:51,15.08834641,0.0001241,53.2182,275.0208,88.208,271.9054,8.5669e-05,1.076e-05,0.0,0 STARLINK-4498,1 53434U 22097AY  24039.82281812  .00001076  00000-0  85669-4 0  9991,2 53434  53.2182 275.0208 0001241  88.2080 271.9054 15.08834641 83593,6917.897,95.438,540.62,538.903,0.0
53434.0,STARLINK-4498,PAYLOAD,2024-02-09 00:31:00,15.08839142,0.0001351,53.2167,274.1292,88.4801,271.6345,8.052e-05,9.94e-06,0.0,0 STARLINK-4498,1 53434U 22097AY  24040.02153592  .00000994  00000-0  80520-4 0  9997,2 53434  53.2167 274.1292 0001351  88.4801 271.6345 15.08839142 84114,6917.883,95.438,540.683,538.813,0.0
53434.0,STARLINK-4498,PAYLOAD,2024-02-10 00:21:47,15.08845202,0.0001147,53.2168,269.6658,97.0915,263.0208,2.3541e-05,8.7e-07,0.0,0 STARLINK-4498,1 53434U 22097AY  24041.01513470  .00000087  00000-0  23541-4 0  9995,2 53434  53.2168 269.6658 0001147  97.0915 263.0208 15.08845202 83773,6917.864,95.437,540.523,538.936,0.0
53434.0,STARLINK-4498,PAYLOAD,2024-02-10 21:01:48,15.08844866,0.0001454,53.2186,265.7959,69.3965,290.7183,5.7345e-05,6.25e-06,0.0,0 STARLINK-4498,1 53434U 22097AY  24041.87625664  .00000625  00000-0  57345-4 0  9995,2 53434  53.2186 265.7959 0001454  69.3965 290.7183 15.08844866 83901,6917.866,95.437,540.736,538.725,0.0
53434.0,STARLINK-4498,PAYLOAD,2024-02-10 22:37:11,15.08845945,0.000133,53.2184,265.4992,72.6436,287.4702,5.3898e-05,5.7e-06,0.0,0 STARLINK-4498,1 53434U 22097AY  24041.94249586  .00000570  00000-0  53898-4 0  9996,2 53434  53.2184 265.4992 0001330  72.6436 287.4702 15.08845945 84401,6917.862,95.437,540.647,538.807,0.0
53434.0,STARLINK-4498,PAYLOAD,2024-02-11 14:31:02,15.08845573,0.0001307,53.2171,262.532,84.7357,275.3784,7.6767e-05,9.34e-06,0.0,0 STARLINK-4498,1 53434U 22097AY  24042.60489499  .00000934  00000-0  76767-4 0  9993,2 53434  53.2171 262.5320 0001307  84.7357 275.3784 15.08845573 84504,6917.863,95.437,540.633,538.824,0.0
53434.0,STARLINK-4498,PAYLOAD,2024-02-11 20:52:35,15.08846711,0.000132,53.2169,261.3427,83.7784,276.3358,8.0045e-05,9.86e-06,0.0,0 STARLINK-4498,1 53434U 22097AY  24042.86985284  .00000986  00000-0  80045-4 0  9995,2 53434  53.2169 261.3427 0001320  83.7784 276.3358 15.08846711 84541,6917.86,95.437,540.638,538.812,0.0
53434.0,STARLINK-4498,PAYLOAD,2024-02-12 00:03:21,15.08851281,0.0001194,53.2164,260.7461,98.2504,261.8624,0.00010519,1.387e-05,0.0,0 STARLINK-4498,1 53434U 22097AY  24043.00232778  .00001387  00000-0  10519-3 0  9999,2 53434  53.2164 260.7461 0001194  98.2504 261.8624 15.08851281 84078,6917.846,95.437,540.537,538.885,0.0
53434.0,STARLINK-4498,PAYLOAD,2024-02-12 14:21:50,15.08835552,0.0001191,53.217,258.0732,61.4736,298.6376,-2.4078e-05,-6.71e-06,0.0,0 STARLINK-4498,1 53434U 22097AY  24043.59850438 -.00000671  00000-0 -24078-4 0  9995,2 53434  53.2170 258.0732 0001191  61.4736 298.6376 15.08835552 84651,6917.894,95.438,540.583,538.935,0.0
53434.0,STARLINK-4498,PAYLOAD,2024-02-12 19:07:59,15.08842859,0.0001613,53.2169,257.1734,117.3403,242.7753,-2.0044e-05,-6.07e-06,0.0,0 STARLINK-4498,1 53434U 22097AY  24043.79721719 -.00000607  00000-0 -20044-4 0  9994,2 53434  53.2169 257.1734 0001613 117.3403 242.7753 15.08842859 84198,6917.872,95.437,540.853,538.621,0.0
53434.0,STARLINK-4498,PAYLOAD,2024-02-12 20:43:23,15.08837316,0.0001358,53.2165,256.8823,83.9193,276.1954,-9.5908e-06,-4.41e-06,0.0,0 STARLINK-4498,1 53434U 22097AY  24043.86346198 -.00000441  00000-0 -95908-5 0  9994,2 53434  53.2165 256.8823 0001358  83.9193 276.1954 15.08837316 84690,6917.889,95.438,540.693,538.814,0.0
